NORAD_CAT_ID,OBJECT_NAME,OBJECT_TYPE,EPOCH,MEAN_MOTION,ECCENTRICITY,INCLINATION,RA_OF_ASC_NODE,ARG_OF_PERICENTER,MEAN_ANOMALY,BSTAR,MEAN_MOTION_DOT,MEAN_MOTION_DDOT,TLE_LINE0,TLE_LINE1,TLE_LINE2,SEMIMAJOR_AXIS,PERIOD,APOGEE,PERIGEE,DECAYED
56465.0,STARLINK-6054,PAYLOAD,2024-07-19 08:57:44,14.98346926,0.0003325,70.0003,172.8647,262.5101,97.568,0.00050347,5.922e-05,0.0,0 STARLINK-6054,1 56465U 23064T   24201.37343601  .00005922  00000-0  50347-3 0  9997,2 56465  70.0003 172.8647 0003325 262.5101  97.5680 14.98346926 66619,6950.141,96.106,574.316,569.695,0.0
56465.0,STARLINK-6054,PAYLOAD,2024-07-19 15:22:17,14.9834427,0.0003266,70.0004,172.1914,262.5416,97.5372,0.00063314,7.472e-05,0.0,0 STARLINK-6054,1 56465U 23064T   24201.64047896  .00007472  00000-0  63314-3 0  9994,2 56465  70.0004 172.1914 0003266 262.5416  97.5372 14.98344270 66655,6950.149,96.106,574.284,569.744,0.0
56465.0,STARLINK-6054,PAYLOAD,2024-07-20 05:47:29,14.98354745,0.0003097,70.0009,170.6766,260.8639,99.217,0.00047283,5.557e-05,0.0,0 STARLINK-6054,1 56465U 23064T   24202.24130990  .00005557  00000-0  47283-3 0  9998,2 56465  70.0009 170.6766 0003097 260.8639  99.2170 14.98354745 67102,6950.116,96.105,574.134,569.829,0.0
56465.0,STARLINK-6054,PAYLOAD,2024-07-20 07:23:37,14.9835602,0.0003093,70.001,170.5082,260.8482,99.2327,0.00049259,5.793e-05,0.0,0 STARLINK-6054,1 56465U 23064T   24202.30806870  .00005793  00000-0  49259-3 0  9999,2 56465  70.0010 170.5082 0003093 260.8482  99.2327 14.98356020 66758,6950.112,96.105,574.127,569.828,0.0
56465.0,STARLINK-6054,PAYLOAD,2024-07-20 15:24:17,14.9834816,0.0002103,70.0011,169.6667,266.3205,93.7714,0.00028242,3.28e-05,0.0,0 STARLINK-6054,1 56465U 23064T   24202.64187146  .00003280  00000-0  28242-3 0  9992,2 56465  70.0011 169.6667 0002103 266.3205  93.7714 14.98348160 67163,6950.137,96.106,573.463,570.54,0.0
56465.0,STARLINK-6054,PAYLOAD,2024-07-21 04:13:22,14.98338848,0.0002821,70.0015,168.3197,263.0935,96.9903,-1.6783e-05,-2.93e-06,0.0,0 STARLINK-6054,1 56465U 23064T   24203.17594915 -.00000293  00000-0 -16783-4 0  9998,2 56465  70.0015 168.3197 0002821 263.0935  96.9903 14.98338848 67248,6950.166,96.106,573.991,570.07,0.0
56465.0,STARLINK-6054,PAYLOAD,2024-07-21 07:25:38,14.98339064,0.0002839,70.0016,167.9831,264.6474,95.4361,-3.8282e-05,-5.5e-06,0.0,0 STARLINK-6054,1 56465U 23064T   24203.30946794 -.00000550  00000-0 -38282-4 0  9993,2 56465  70.0016 167.9831 0002839 264.6474  95.4361 14.98339064 66908,6950.165,96.106,574.003,570.057,0.0
56465.0,STARLINK-6054,PAYLOAD,2024-07-21 21:50:50,14.98336614,0.0003001,70.0003,166.4683,263.5473,96.5344,1.9014e-05,1.34e-06,0.0,0 STARLINK-6054,1 56465U 23064T   24203.91030954  .00000134  00000-0  19014-4 0  9990,2 56465  70.0003 166.4683 0003001 263.5473  96.5344 14.98336614 66992,6950.172,96.107,574.123,569.952,0.0
56465.0,STARLINK-6054,PAYLOAD,2024-07-22 04:15:23,14.98335128,0.000288,70.0003,165.7954,261.9648,98.1184,-4.9607e-05,-6.85e-06,0.0,0 STARLINK-6054,1 56465U 23064T   24204.17734989 -.00000685  00000-0 -49607-4 0  9992,2 56465  70.0003 165.7954 0002880 261.9648  98.1184 14.98335128 67399,6950.177,96.107,574.044,570.04,0.0
56465.0,STARLINK-6054,PAYLOAD,2024-07-22 07:27:38,14.98338149,0.0002899,70.0003,165.4589,262.8487,97.2342,-2.3961e-05,-3.79e-06,0.0,0 STARLINK-6054,1 56465U 23064T   24204.31086664 -.00000379  00000-0 -23961-4 0  9993,2 56465  70.0003 165.4589 0002899 262.8487  97.2342 14.98338149 67056,6950.168,96.106,574.048,570.018,0.0
56465.0,STARLINK-6054,PAYLOAD,2024-07-22 21:52:51,14.98334395,0.0002902,70.0003,163.9444,265.8945,94.1882,0.00010777,1.193e-05,0.0,0 STARLINK-6054,1 56465U 23064T   24204.91170409  .00001193  00000-0  10777-3 0  9993,2 56465  70.0003 163.9444 0002902 265.8945  94.1882 14.98334395 67140,6950.179,96.107,574.061,570.027,0.0
56465.0,STARLINK-6054,PAYLOAD,2024-07-23 04:17:23,14.98338101,0.0002883,70.0002,163.2725,258.9088,101.1747,0.00012309,1.376e-05,0.0,0 STARLINK-6054,1 56465U 23064T   24205.17874082  .00001376  00000-0  12309-3 0  9996,2 56465  70.0002 163.2725 0002883 258.9088 101.1747 14.98338101 67545,6950.168,96.106,574.037,570.029,0.0
56465.0,STARLINK-6054,PAYLOAD,2024-07-23 13:54:12,14.98327742,0.0002215,70.0021,162.2588,275.6465,84.4441,8.9747e-05,9.78e-06,0.0,0 STARLINK-6054,1 56465U 23064T   24205.57930907  .00000978  00000-0  89747-4 0  9997,2 56465  70.0021 162.2588 0002215 275.6465  84.4441 14.98327742 67246,6950.2,96.107,573.604,570.525,0.0
56465.0,STARLINK-6054,PAYLOAD,2024-07-23 20:18:44,14.98311417,0.0002585,70.0024,161.5861,273.471,86.6154,0.00035878,4.188e-05,0.0,0 STARLINK-6054,1 56465U 23064T   24205.84635087  .00004188  00000-0  35878-3 0  9990,2 56465  70.0024 161.5861 0002585 273.4710  86.6154 14.98311417 67645,6950.25,96.108,573.912,570.319,0.0
56465.0,STARLINK-6054,PAYLOAD,2024-07-24 07:31:41,14.98321743,0.0002695,70.0007,160.41,266.8491,93.2359,3.1591e-05,2.84e-06,0.0,0 STARLINK-6054,1 56465U 23064T   24206.31367486  .00000284  00000-0  31591-4 0  9990,2 56465  70.0007 160.4100 0002695 266.8491  93.2359 14.98321743 67356,6950.218,96.108,573.957,570.21,0.0
56465.0,STARLINK-6054,PAYLOAD,2024-07-24 20:20:44,14.9833847,0.0002966,69.9996,159.0647,260.1565,99.926,4.9937e-05,5.03e-06,0.0,0 STARLINK-6054,1 56465U 23064T   24206.84774223  .00000503  00000-0  49937-4 0  9996,2 56465  69.9996 159.0647 0002966 260.1565  99.9260 14.98338470 67797,6950.167,96.106,574.093,569.97,0.0
56465.0,STARLINK-6054,PAYLOAD,2024-07-25 05:57:33,14.9833344,0.0002923,70.0001,158.0545,258.2211,101.862,0.00029701,3.453e-05,0.0,0 STARLINK-6054,1 56465U 23064T   24207.24829908  .00003453  00000-0  29701-3 0  9995,2 56465  70.0001 158.0545 0002923 258.2211 101.8620 14.98333440 67494,6950.182,96.107,574.079,570.016,0.0
56465.0,STARLINK-6054,PAYLOAD,2024-07-25 20:22:46,14.9832232,0.0002693,70.0002,156.5388,265.3024,94.7828,6.893e-05,7.29e-06,0.0,0 STARLINK-6054,1 56465U 23064T   24207.84914991  .00000729  00000-0  68930-4 0  9999,2 56465  70.0002 156.5388 0002693 265.3024  94.7828 14.98322320 67943,6950.217,96.107,573.953,570.21,0.0
56465.0,STARLINK-6054,PAYLOAD,2024-07-25 21:58:54,14.98325079,0.000239,70.0012,156.3707,260.0884,100.0005,8.6965e-05,9.45e-06,0.0,0 STARLINK-6054,1 56465U 23064T   24207.91590786  .00000945  00000-0  86965-4 0  9997,2 56465  70.0012 156.3707 0002390 260.0884 100.0005 14.98325079 67590,6950.208,96.107,573.734,570.412,0.0
56465.0,STARLINK-6054,PAYLOAD,2024-07-26 05:59:35,14.98321258,0.0002471,70.0011,155.529,262.0842,98.0036,5.4711e-05,5.6e-06,0.0,0 STARLINK-6054,1 56465U 23064T   24208.24971287  .00000560  00000-0  54711-4 0  9990,2 56465  70.0011 155.5290 0002471 262.0842  98.0036 14.98321258 67644,6950.22,96.108,573.802,570.368,0.0
56465.0,STARLINK-6054,PAYLOAD,2024-07-26 20:24:46,14.98340549,0.0002853,70.0005,154.0158,268.547,91.5362,5.0171e-05,5.06e-06,0.0,0 STARLINK-6054,1 56465U 23064T   24208.85053987  .00000506  00000-0  50171-4 0  9991,2 56465  70.0005 154.0158 0002853 268.5470  91.5362 14.98340549 68090,6950.16,96.106,574.008,570.042,0.0
56465.0,STARLINK-6054,PAYLOAD,2024-07-27 06:01:34,14.98346324,0.0003008,70.0001,153.0032,268.4965,91.585,9.1905e-05,1.004e-05,0.0,0 STARLINK-6054,1 56465U 23064T   24209.25109235  .00001004  00000-0  91905-4 0  9998,2 56465  70.0001 153.0032 0003008 268.4965  91.5850 14.98346324 67792,6950.142,96.106,574.098,569.917,0.0
56465.0,STARLINK-6054,PAYLOAD,2024-07-27 22:02:56,14.98320665,0.0002958,70.0004,151.3216,268.9859,91.0961,3.7347e-05,3.53e-06,0.0,0 STARLINK-6054,1 56465U 23064T   24209.91870931  .00000353  00000-0  37347-4 0  9995,2 56465  70.0004 151.3216 0002958 268.9859  91.0961 14.98320665 67899,6950.222,96.108,574.143,570.031,0.0
56465.0,STARLINK-6054,PAYLOAD,2024-07-28 04:27:28,14.98322269,0.0002966,70.0004,150.6488,269.5592,90.5227,2.5912e-05,2.16e-06,0.0,0 STARLINK-6054,1 56465U 23064T   24210.18574990  .00000216  00000-0  25912-4 0  9995,2 56465  70.0004 150.6488 0002966 269.5592  90.5227 14.98322269 68298,6950.217,96.107,574.143,570.02,0.0
56465.0,STARLINK-6054,PAYLOAD,2024-07-28 22:04:57,14.98329443,0.0003086,70.0001,148.7973,269.6427,90.4378,-2.0284e-05,-3.35e-06,0.0,0 STARLINK-6054,1 56465U 23064T   24210.92010817 -.00000335  00000-0 -20284-4 0  9991,2 56465  70.0001 148.7973 0003086 269.6427  90.4378 14.98329443 68044,6950.195,96.107,574.204,569.915,0.0
56465.0,STARLINK-6054,PAYLOAD,2024-07-29 04:29:29,14.9833686,0.0003058,69.9999,148.123,270.5055,89.5753,-5.8875e-06,-1.63e-06,0.0,0 STARLINK-6054,1 56465U 23064T   24211.18714282 -.00000163  00000-0 -58875-5 0  9994,2 56465  69.9999 148.1230 0003058 270.5055  89.5753 14.98336860 68445,6950.172,96.107,574.162,569.911,0.0
56465.0,STARLINK-6054,PAYLOAD,2024-07-29 12:30:07,14.98412261,0.0002634,70.0002,147.2815,260.214,99.8721,-0.0014371,-0.00017234,0.0,0 STARLINK-6054,1 56465U 23064T   24211.52091814 -.00017234  00000-0 -14371-2 0  9998,2 56465  70.0002 147.2815 0002634 260.2140  99.8721 14.98412261 68496,6949.939,96.102,573.634,569.973,0.0
56465.0,STARLINK-6054,PAYLOAD,2024-07-29 20:30:49,14.98329348,0.0002953,70.0002,146.4402,271.6436,88.4385,0.00017992,2.054e-05,0.0,0 STARLINK-6054,1 56465U 23064T   24211.85474341  .00002054  00000-0  17992-3 0  9999,2 56465  70.0002 146.4402 0002953 271.6436  88.4385 14.98329348 68546,6950.195,96.107,574.112,570.008,0.0
56465.0,STARLINK-6054,PAYLOAD,2024-07-29 22:06:57,14.98329846,0.0002953,70.0002,146.2718,271.6085,88.4735,0.0001847,2.111e-05,0.0,0 STARLINK-6054,1 56465U 23064T   24211.92150328  .00002111  00000-0  18470-3 0  9999,2 56465  70.0002 146.2718 0002953 271.6085  88.4735 14.98329846 68197,6950.193,96.107,574.111,570.006,0.0
56465.0,STARLINK-6054,PAYLOAD,2024-07-30 12:32:10,14.9833628,0.0002897,70.0004,144.7572,271.037,89.0457,0.00022632,2.609e-05,0.0,0 STARLINK-6054,1 56465U 23064T   24212.52233976  .00002609  00000-0  22632-3 0  9994,2 56465  70.0004 144.7572 0002897 271.0370  89.0457 14.98336280 68286,6950.173,96.107,574.052,570.025,0.0
